id	name	lat	lon	x	y
1	River Street , Clerkenwell	51.52916347	-0.109970527	531203.5199778117	182832.06699842165
2	Phillimore Gardens, Kensington	51.49960695	-0.197574246	525208.0690493513	179391.92306994757
3	Christopher Street, Liverpool Street	51.52128377	-0.084605692	532985.8102782514	182001.57294075456
4	St. Chad's Street, King's Cross	51.53005939	-0.120973687	530437.759836825	182912.03895408634
5	Sedding Street, Sloane Square	51.49313	-0.156876	528050.9684206053	178742.00468992305
6	Broadcasting House, Marylebone	51.51811784	-0.144228881	528858.4395805418	181542.9232361966
7	Charlbert Street, St. John's Wood	51.53430039	-0.16807429999999998	527159.0093390833	183300.80800392662
8	Lodge Road, St. John's Wood	51.52834133	-0.17013448399999997	527032.6993103465	182634.55850175986
9	New Globe Walk, Bankside	51.507385299999996	-0.09644075099999999	532204.9701119395	180434.59483635446
10	Park Street, Bankside	51.50597426	-0.09275415699999999	532464.8901754634	180284.3435335911
11	Brunswick Square, Bloomsbury	51.52395143	-0.122502346	530349.1598696073	182230.08942309645
12	Malet Street, Bloomsbury	51.52168078	-0.130431727	529805.5497898399	181963.50059465558
13	Scala Street, Fitzrovia	51.51991453	-0.136039674	529421.5096733405	181757.16198143386
14	Belgrove Street , King's Cross	51.52994371	-0.123616824	530254.7598454814	182894.4699575757
15	Great Russell Street, Bloomsbury	51.51772703	-0.127854211	529995.6097707726	181528.4009471682
16	Cartwright Gardens , Bloomsbury	51.52635795	-0.125979294	530101.1098312396	182491.52027173576
17	Hatton Wall, Holborn	51.521661200000004	-0.109006325	531291.9599822884	181999.5167080756
18	Drury Lane, Covent Garden	51.51477076	-0.12221963	530394.9698493442	181209.6696477497
19	Taviton Street, Bloomsbury	51.52505093	-0.13116108699999998	529745.3797243277	182336.98136557097
20	Drummond Street , Euston	51.52773634	-0.135273468	529452.4997382081	182628.33131552246
21	Hampstead Road (Cartmel), Euston	51.53007835	-0.13884627	529198.049671463	182882.46217503928
22	Northington Street , Holborn	51.5222641	-0.114079481	530938.2899376497	182057.4783912203
23	Red Lion Square, Holborn	51.51943538	-0.119123345	530596.4698603807	181733.90856030767
24	British Museum, Bloomsbury	51.51908011	-0.124678402	530212.0898180817	181684.50999660327
25	Doric Way , Somers Town	51.5288338	-0.132250369	529659.079703264	182755.72160142614
26	Ampton Street , Clerkenwell	51.52728093	-0.11829517	530631.4898885449	182607.83875912149
27	Bouverie Street, Temple	51.51382102	-0.107927706	531389.3300382302	181129.59702593862
28	Bolsover Street, Fitzrovia	51.52351808	-0.143613641	528885.8896019821	182144.53348666604
29	Hereford Road, Bayswater	51.513735	-0.193487	525452.9773647224	180970.01667669893
30	Windsor Terrace, Hoxton	51.52915444	-0.093421615	532351.4101680061	182860.84450383266
31	Fanshaw Street, Hoxton	51.52953709	-0.08335332299999999	533048.6502796942	182921.6425494983
32	Leonard Circus , Shoreditch	51.52469624	-0.084439283	532987.4203127486	182381.35224419014
33	Central House, Aldgate	51.5156	-0.070056	534011.8455712339	181396.0437871521
34	Pancras Road, King's Cross	51.5341235	-0.129386874	529842.6597503606	183349.0307167954
36	De Vere Gardens, Kensington	51.50173726	-0.184980612	526076.2891422672	179650.42097193113
37	Penywern Road, Earl's Court	51.49159394	-0.19236925600000002	525591.3391074771	178509.7519050673
38	Abingdon Villas, Kensington	51.4973875	-0.19724558600000003	525236.9590239102	179145.6725816047
39	Shoreditch High Street, Shoreditch	51.5263778	-0.07813092099999999	533420.110329552	182579.82195584223
40	Commercial Street, Shoreditch	51.52127071	-0.0755789	533612.0703404148	182016.55141573894
41	Sun Street, Liverpool Street	51.52001715	-0.08391116800000001	533037.6802759146	181861.98242717478
42	Wenlock Road , Hoxton	51.53099181	-0.093903825	532312.640160416	183064.29467493328
43	Crawford Street, Marylebone	51.52026	-0.157183945	527953.6294630646	181758.42621686478
44	Bruton Street, Mayfair	51.51073687	-0.144165239	528883.6695988289	180722.24351101136
45	Boston Place, Marylebone	51.522511	-0.162298	527592.5505437803	181999.8243617846
46	Nesham Street, Wapping	51.507131	-0.06691	534254.9987027402	180460.03026774825
47	Warwick Avenue Station, Maida Vale	51.52334476	-0.18384640800000002	526095.3791379269	182055.22032115073
48	Godliman Street, St. Paul's	51.51248445	-0.09914140800000001	532002.8301282414	180996.76487220018
49	Curzon Street, Mayfair	51.50706909	-0.145904427	528773.3195742578	180311.3139758712
50	East Road, Hoxton	51.52867339	-0.08745937599999999	532766.3602221197	182818.14359849255
51	Finsbury Library , Finsbury	51.52671796	-0.104298194	531604.0100669484	182570.29664822965
52	Roscoe Street, St. Luke's	51.52295439	-0.09493485900000001	532264.400158699	182168.6446610638
53	Grafton Street, Mayfair	51.50999229999999	-0.14349526599999998	528932.2595776288	180640.62366838625
54	Golden Lane, Barbican	51.52174785	-0.094475072	532299.7902050678	182035.30408976178
55	Finsbury Circus, Liverpool Street	51.51707521	-0.08668554199999999	532853.760228964	181529.79349491745
56	Paddington Street, Marylebone	51.52058381	-0.15470141099999998	528124.9495115272	181798.77536270625
57	Guilford Street , Bloomsbury	51.52334672	-0.120202614	530510.4198509693	182166.93942494548
58	New Inn Yard, Shoreditch	51.52452699	-0.079248081	533348.0203605833	182371.97140153035
59	Rodney Street, Angel	51.53176825	-0.114329032	530893.7399491577	183113.9275513479
60	Lisson Grove, St. John's Wood	51.52644828	-0.172190727	526895.3293038671	182420.47806276724
61	Great Dover Street, The Borough	51.49738251	-0.089446947	532719.3402583804	179334.90319769285
62	Cotton Garden Estate, Kennington	51.4907579	-0.106323685	531566.9799991136	178567.78704518068
63	Murray Grove , Hoxton	51.53089041	-0.089782579	532598.7802012527	183060.4737290338
64	William IV Street, Strand	51.50946212	-0.12474927400000001	530234.5798494959	180614.82991024706
65	Gower Place , Euston	51.52522753	-0.13518856	529465.4997056085	182349.4920870595
66	Holborn Circus, Holborn	51.51795029	-0.108657431	531326.8299886603	181587.47661307978
67	Hatton Garden, Holborn	51.51882555	-0.10802847199999999	531367.9500486434	181685.93645355816
68	Theobald's Road , Holborn	51.52059681	-0.116688468	530762.0698812793	181867.40835372003
69	Euston Road, Euston	51.526236299999994	-0.134407652	529516.8096892829	182463.0520274089
70	Calshot Street , King's Cross	51.53136059	-0.117069978	530704.7999228381	183063.6981251269
71	Newgate Street , St. Paul's	51.5154186	-0.098850915	532014.5101221041	181323.5750811327
72	Farringdon Lane, Clerkenwell	51.52352001	-0.108340165	531332.8299751453	182207.41719257936
73	Old Street Station, St. Luke's	51.52572618	-0.08848618800000001	532703.7002324701	182488.54320686925
74	Vauxhall Cross, Vauxhall	51.48591714	-0.12446994800000001	530321.049854973	177997.04933618972
75	Torrens Street, Angel	51.53219984	-0.10548069800000001	531506.2000422466	183177.77623870617
76	Longford Street, The Regent's Park	51.52559505	-0.14408389300000002	528847.4095964765	182374.67323411314
77	Russell Square Station, Bloomsbury	51.52341837	-0.124121774	530238.3398025006	182167.9299467506
78	Sadlers Sports Centre, Finsbury	51.52486887	-0.099489485	531942.9101239239	182373.32478485545
80	Webber Street , Southwark	51.50069361	-0.102091246	531832.1501081953	179680.275355089
81	Great Titchfield Street, Fitzrovia	51.52025302	-0.141327271	529053.7196754601	181785.47255195907
82	Chancery Lane, Holborn	51.514274	-0.111257	531157.0258814874	181174.00264850818
84	Breams Buildings, Holborn	51.51593725	-0.11177834800000001	531116.0799675997	181358.02809193442
85	Tanner Street, Bermondsey	51.50064702	-0.078600401	533462.6703130194	179717.6315618859
86	Sancroft Street, Vauxhall	51.48947903	-0.11515656199999999	530957.4599659815	178409.74805720308
87	Devonshire Square, Liverpool Street	51.51646835	-0.079684557	533341.2603153404	181475.03216453712
88	Bayley Street , Bloomsbury	51.51858757	-0.132053392	529701.8297653291	181616.65111280297
89	Tavistock Place, Bloomsbury	51.526250299999994	-0.12350961099999999	530272.7298003632	182483.93977717884
90	Harrington Square 1, Camden Town	51.53301907	-0.139174593	529166.9596648732	183208.9027525976
91	Walnut Tree Walk, Vauxhall	51.49368637	-0.111014912	531232.9099620508	178885.02749590855
92	Borough Road, Elephant & Castle	51.49889832	-0.10044052099999999	531951.900061667	179483.60592910644
93	Cloudesley Road, Angel	51.53440868	-0.109025404	531253.9999754161	183417.04691362072
94	Bricklayers Arms, Borough	51.49506109	-0.08581448900000001	532978.2202504157	179083.34237562315
95	Aldersgate Street, Barbican	51.5208417	-0.097340162	532103.6500935452	181929.36519412548
96	Falkirk Street, Hoxton	51.53095071	-0.078505384	533380.7803783733	183087.66136796717
97	Gloucester Road (North), Kensington	51.49792478	-0.18383470600000001	526166.339205276	179228.43037695388
98	Hampstead Road, Euston	51.52554222	-0.138231303	529253.5396823003	182379.11195932122
99	Old Quebec Street, Marylebone	51.51457763	-0.158264483	527894.569457975	181124.63656316246
100	Albert Embankment, Vauxhall	51.49043573	-0.12280686099999999	530423.6298332816	178502.4895177871
101	Queen Street 1, Bank	51.51155322	-0.09294010000000001	532435.8201602222	180904.40404327842
102	Jewry Street, Aldgate	51.51340693	-0.076793375	533550.800387893	181139.86154433567
103	Vicarage Gate, Kensington	51.50472376	-0.192538767	525543.5190552901	179969.55204638006
104	Crosswall, Tower	51.51159481	-0.077121322	533533.3404046688	180937.75082398954
105	Westbourne Grove, Bayswater	51.51552971	-0.190240716	525673.2891092461	181175.16145301357
106	Woodstock Street, Mayfair	51.51410514	-0.147301667	528656.5495608855	181091.2937109043
107	Finsbury Leisure Centre, St. Luke's	51.52600832	-0.09631762699999999	532159.6401411374	182505.75508678105
108	Abbey Orchard Street, Westminster	51.49812559	-0.132102166	529756.5197727979	179341.12101259205
109	Soho Square , Soho	51.51563144	-0.132328837	529691.1097787535	181287.43090051014
110	Wellington Road, St. John's Wood	51.53304322	-0.17252867800000002	526853.5692835933	183153.27907866947
111	Park Lane , Hyde Park	51.5100172	-0.157275636	527975.9494770201	180619.22602087096
112	Stonecutter Street, Holborn	51.51580998	-0.105270275	531567.9900313735	181355.54636899664
113	Gloucester Road (Central), South Kensington	51.49646288	-0.183289032	526208.249175041	179066.8010804189
114	Park Road (Baker Street), The Regent's Park	51.52451738	-0.15896364699999999	527818.249458514	182228.75657244975
115	Braham Street, Aldgate	51.51423368	-0.07353765400000001	533774.2803870268	181237.74014786657
116	Little Argyll Street, West End	51.51449962	-0.141423695	529063.2796280376	181145.50279801982
117	Lollard Street, Vauxhall	51.49288067	-0.114934001	530963.1699215303	178788.4183226057
118	Rochester Row, Westminster	51.49582705	-0.13547809	529528.7097020535	179079.54158813835
119	Bath Street, St. Luke's	51.52589324	-0.090847761	532539.400212266	182502.84382501538
120	The Guildhall, Guildhall	51.51573534	-0.093080779	532413.9402057333	181369.21407843192
121	Baker Street, Marylebone	51.51891348	-0.156166631	528027.9795054384	181610.4656134197
122	Norton Folgate, Liverpool Street	51.52111369	-0.078869751	533384.2303200413	181993.09128823093
123	St. John Street, Finsbury	51.52836014	-0.104724625	531569.7000487336	182752.1464103282
124	Eaton Square, Belgravia	51.49654462	-0.150905245	528455.8495159039	179132.17495830884
125	Borough High Street, The Borough	51.50069491	-0.09452431900000001	532357.330136087	179694.06491754553
126	Museum of London, Barbican	51.51782144	-0.096496865	532170.8901625723	181595.02423548946
127	Wood Street, Guildhall	51.51700801	-0.09388536	532354.4301954255	181509.28454548365
128	Emperor's Gate, South Kensington	51.49536226	-0.18529651600000002	526071.939159554	178940.95138156263
129	Golden Square, Soho	51.5118973	-0.137043852	529374.5396910671	180863.84230233598
130	Tower Gardens , Tower	51.50950627	-0.07545948200000001	533654.7604132958	180708.53065443874
131	Eversholt Street , Camden Town	51.53300545	-0.136792671	529332.1996850163	183211.5925755743
132	Bethnal Green Road, Shoreditch	51.52364804	-0.074754872	533662.2803420667	182282.42119038975
133	Derry Street, Kensington	51.50136494	-0.19146238100000001	525627.4490654668	179597.88227426665
134	Wapping High Street, Wapping	51.504903999999996	-0.06797	534187.9773621655	180210.43985284952
135	Clerkenwell Green, Clerkenwell	51.52326004	-0.104708922	531585.4800370361	182185.02615858434
136	Queen Victoria Street, St. Paul's	51.51196176	-0.097441687	532122.2801599824	180941.70488620005
138	Green Street, Mayfair	51.51227622	-0.15743697199999998	527958.4294887984	180870.15599217126
139	Lambeth Road, Vauxhall	51.49488108	-0.117974901	530746.3599168573	179005.43855259454
140	Finsbury Square , Moorgate	51.52096262	-0.085634242	532915.3902460145	181963.99279734516
141	Chapel Place, Marylebone	51.51530805	-0.147203711	528659.9595538458	181225.23396773048
142	West Cromwell Road, Earl's Court	51.49372451	-0.198286569	525174.728972107	178736.55374826564
143	Pont Street, Knightsbridge	51.4968865	-0.16120382800000002	527740.0494447201	179152.1861121368
144	Kennington Cross, Kennington	51.48894022	-0.11143579599999999	531217.3099911968	178356.48796058563
145	Ilchester Place, Kensington	51.50074359	-0.202759212	524845.0889646389	179509.4736374829
146	Vauxhall Bridge , Pimlico	51.48836528	-0.129361842	529974.4597529641	178260.60057160442
147	Portugal Street, Holborn	51.51494305	-0.11614642	530815.8599200903	181239.65882900078
148	Tachbrook Street, Victoria	51.49211134	-0.13836484699999999	529338.8397001207	178661.2422695484
149	Kennington Road Post Office, Oval	51.48478899	-0.110683213	531281.4700082011	177896.20757011772
150	Holy Trinity Brompton, Knightsbridge	51.49705603	-0.168917077	527204.1893663307	179157.61775284502
151	Chepstow Villas, Notting Hill	51.51213691	-0.201554966	524897.5389419305	180778.51421453088
152	Hampton Street, Walworth	51.49217002	-0.101536865	531895.2101112352	178733.42564483543
154	Waterloo Station 3, Waterloo	51.50379168	-0.11282408	531078.3523636925	180005.5296796608
155	Lexham Gardens, Kensington	51.49586666	-0.191933711	525609.8390776152	178985.64247786626
156	New Kent Road, The Borough	51.49443626	-0.092921165	532486.7302049468	179000.98367238123
157	Wright's Lane, Kensington	51.50039792	-0.193068385	525518.6390332887	179487.59273944446
158	Trebovir Road, Earl's Court	51.49085368	-0.196170309	525329.498993571	178420.92334646406
159	Great Marlborough Street, Soho	51.51461995	-0.137841333	529311.4996767037	181165.20263960338
160	Waterloo Place, St. James's	51.50663341	-0.131773845	529755.1597622535	180287.80101536322
161	Guildhouse Street, Victoria	51.49234577	-0.14133448699999998	529132.0296104653	178682.0733818867
162	Southampton Place, Holborn	51.51760685	-0.12132840800000001	530448.709817885	181526.63978163636
163	Sloane Avenue, Knightsbridge	51.4931848	-0.167894973	527285.9093552559	178728.89754104687
164	Cleveland Gardens, Bayswater	51.515607	-0.183118788	526167.2191936078	181196.00038466213
165	Orsett Terrace, Bayswater	51.517932	-0.18371695899999999	526119.2991769224	181453.52031289184
166	Seville Street, Knightsbridge	51.50185512	-0.159237081	527862.6694162022	179708.14626015755
167	Eccleston Place, Victoria	51.49395092	-0.147624377	528690.8795879801	178849.50422540985
168	Argyll Road, Kensington	51.50040123	-0.195455928	525352.9190642199	179483.8728622748
169	Porchester Place, Paddington	51.51474612	-0.16516428800000002	527415.3593690873	181131.34775585614
170	Hardwick Street, Clerkenwell	51.52784273	-0.108068155	531339.2700175465	182688.60641544726
171	Collingham Gardens, Earl's Court	51.4916156	-0.186753859	525981.0991645849	178521.80101751167
172	Sumner Place, South Kensington	51.49121192	-0.17371591100000003	526887.3092799148	178499.40901142661
173	Waterloo Road, South Bank	51.50486	-0.113001	531063.0111244344	180124.01366420067
174	Strand, Strand	51.512529	-0.11516300000000002	530891.0072849349	180972.96534759784
175	Appold Street, Liverpool Street	51.52174384	-0.0811189	533226.3603420098	182059.0716782947
176	Gloucester Terrace, Bayswater	51.51791921	-0.188098863	525815.3190959238	181444.56161886823
177	Ashley Place, Victoria	51.49616092	-0.140947636	529148.1096529114	179107.01287079064
178	Warwick Square, Pimlico	51.48985626	-0.141923621	529098.159656164	178404.193347629
180	North Audley Street, Mayfair	51.5129118	-0.153645496	528219.72950623	180947.46539155964
181	Belgrave Square, Belgravia	51.49941247	-0.152317537	528349.769553611	179448.61485680894
182	Bell Street , Marylebone	51.52202903	-0.165842551	527347.9993540797	181940.05783173282
183	Riverlight North, Nine Elms	51.482362	-0.13612398	529521.9995938	177581.04284324104
184	Portland Place, Marylebone	51.52071513	-0.14521173	528782.9295885366	181830.0231484341
185	Alderney Street, Pimlico	51.48805753	-0.140741432	529185.3096321055	178206.25235178357
186	South Wharf Road, Paddington	51.51733558	-0.175810943	526669.4692796028	181400.8394125551
187	Queen's Gate (South), South Kensington	51.49247977	-0.17843300399999998	526556.3392410136	178632.240201472
188	Nutford Place, Marylebone	51.516517900000004	-0.164393768	527463.879355266	181329.71760184842
189	Claremont Square, Angel	51.53166681	-0.109914711	531200.1999980761	183110.54731583575
190	Rampayne Street, Pimlico	51.48997562	-0.132845681	529728.0297242049	178433.5010939103
191	Hyde Park Corner, Hyde Park	51.50311799	-0.153520935	528255.8495281949	179858.5746256007
192	Wardour Street, Soho	51.51251523	-0.133201961	529639.3697503571	180939.35137691454
193	Bankside Mix, Bankside	51.50581776	-0.10018633699999999	531949.5700578699	180253.52585742326
194	Hop Exchange, The Borough	51.50462759	-0.091773776	532536.8301875246	180136.36338207757
195	Milroy Walk, South Bank	51.50724437	-0.106237501	531525.5300080976	180401.2861979816
196	Union Street, The Borough	51.50368837	-0.098497684	532072.9101322694	180019.77466817328
197	Stamford Street, South Bank	51.50556905	-0.11160669599999999	531157.7399782216	180205.35792556038
199	Great Tower Street, Monument	51.51048489	-0.082989638	533129.3803183559	180803.6418861937
200	LMU Commercial Road, Whitechapel	51.51492456	-0.066078037	534289.8304704677	181328.2195626491
201	Dorset Square, Marylebone	51.522596500000006	-0.161113413	527674.4894309093	182011.3967959997
202	Leman Street, Aldgate	51.51236389	-0.06954201	534057.0004213254	181037.12029750447
203	West Smithfield Rotunda, Farringdon	51.51821864	-0.100791005	531871.820123267	181631.45321304185
204	Margery Street, Clerkenwell	51.52659961	-0.112432615	531040.0999263752	182542.54805991263
206	New Road 1 , Whitechapel	51.518153999999996	-0.062697	534514.9102294507	181693.54671990234
207	Grosvenor Crescent, Belgravia	51.50135267	-0.153194766	528283.4394783404	179662.835641505
208	Mallory Street, Marylebone	51.52505151	-0.166304359	527307.539363358	182275.3674978637
209	Denyer Street, Knightsbridge	51.49358391	-0.16510139199999999	527478.719398136	178778.1371034683
210	Hinde Street, Marylebone	51.51681444	-0.151926305	528328.0595373315	181384.465092458
211	Cadogan Place, Knightsbridge	51.49464523	-0.158105512	527961.3794965253	178908.35554828504
212	Campden Hill Road, Notting Hill	51.50658458	-0.19900402600000003	525089.7389856756	180165.42318073273
213	Wellington Arch, Hyde Park	51.50274025	-0.14956920099999998	528531.1695364284	179823.49474590216
214	Endsleigh Gardens, Euston	51.52683806	-0.130504336	529785.8597917131	182536.8807519615
215	Moorfields, Moorgate	51.51906932	-0.088285377	532736.9702381531	181748.64363583003
216	Old Brompton Road, South Kensington	51.49094565	-0.181190899	526369.1292315633	178456.87988108755
217	Wormwood Street, Liverpool Street	51.51615461	-0.08242239900000001	533152.2202782062	181435.16217921604
218	St. Luke's Church, Chelsea	51.48971651	-0.17019440800000002	527135.9293398245	178339.21836203907
219	Bramham Gardens, Earl's Court	51.49016361	-0.19039362	525732.4191334426	178354.0818033076
220	Chelsea Green, Chelsea	51.49066456	-0.166485083	527390.7993704793	178451.087905803
221	Horseferry Road, Westminster	51.49481649	-0.13045856	529879.999787286	178976.05072944428
222	Knightsbridge, Hyde Park	51.50275704	-0.155349725	528129.9394811194	179815.23534083326
223	Rodney Road , Walworth	51.49148474	-0.090220911	532682.7301929338	178677.6535928616
224	Whiteley's, Bayswater	51.51476963	-0.18812973100000002	525821.8491045992	181094.2613813964
225	Notting Hill Gate Station, Notting Hill	51.50935342	-0.196422	525261.336504402	180477.74262561393
226	Charles II Street, West End	51.50844614	-0.131961389	529736.9997763212	180489.05070136464
227	Great Percy Street, Clerkenwell	51.52891573	-0.115480888	530822.0198926814	182794.6585405821
228	St. James's Square, St. James's	51.50742485	-0.134621209	529555.3196870461	180370.77193439825
229	Whitehall Place, Strand	51.50654321	-0.12317969699999999	530351.819847613	180293.0292219878
230	Poured Lines, Bankside	51.50669284	-0.10313742599999999	531742.2500921491	180345.5255019387
231	Queen's Gate (Central), South Kensington	51.49396755	-0.17873226	526531.4492092376	178797.17025489564
232	Carey Street, Holborn	51.51501025	-0.11275321699999999	531051.0999853734	181253.19779443066
233	Pall Mall East, West End	51.50777049	-0.130699733	529826.4697373611	180416.15147611132
234	Liverpool Road (N1 Centre), Angel	51.53450449	-0.10699270599999999	531394.6999962317	183431.3470756897
235	Kennington Road  , Vauxhall	51.49571828	-0.11088927400000001	531235.7999909524	179111.20696509996
236	Fashion Street, Whitechapel	51.51838043	-0.073438925	533768.9903896665	181699.05063044743
237	Dock Street, Wapping	51.50978602	-0.068161981	534160.3239395058	180752.9812641711
238	Frampton Street, Paddington	51.5233534	-0.175116099	526700.9892790593	182071.24885937147
239	Warren Street Station, Euston	51.52443845	-0.138019439	529271.3596555564	182256.74243275178
240	Colombo Street, Southwark	51.50545935	-0.10569204	531568.5200800326	180203.7660520555
242	Beaumont Street, Marylebone	51.52200801	-0.151359288	528352.8095544253	181963.00427994545
243	Gloucester Street, Pimlico	51.49096258	-0.139625122	529254.5996415032	178531.2722671314
244	Earnshaw Street , Covent Garden	51.51611887	-0.128585022	529949.4797700399	181348.27086694058
245	Grosvenor Road, Pimlico	51.4853572	-0.142207481	529091.1496386692	177903.38296878146
246	Berry Street, Clerkenwell	51.52285301	-0.09999405199999999	531913.7300665441	182148.2455078361
247	St. John's Wood Church, The Regent's Park	51.530052000000005	-0.16831400000000002	527154.2125864434	182827.952049222
248	Triangle Car Park, Hyde Park	51.50645179	-0.170279555	527083.4993062103	180200.09831458703
249	Harper Road, The Borough	51.49859784	-0.096191134	532247.7101424069	179457.85445635862
250	Royal Avenue 1, Chelsea	51.489932	-0.162727	527653.7337045661	178376.16544204144
251	Brushfield Street, Liverpool Street	51.518908	-0.079249	533364.3586656686	181747.1214022377
252	Jubilee Gardens, South Bank	51.5046364	-0.11654227800000001	530817.889923705	180092.81837612853
253	Shoreditch Park, Hoxton	51.53404294	-0.086379717	532825.6302692094	183417.21300813276
254	Chadwell Street, Angel	51.53051587	-0.106408455	531446.6999809052	182988.84702123504
255	Clifton Road, Maida Vale	51.52557531	-0.179592915	526384.279205985	182310.59950111253
256	Houghton Street, Strand	51.51362054	-0.11676421099999999	530776.7799360855	181091.4879860195
257	Westminster University, Marylebone	51.52248185	-0.154907218	528105.3494942163	182009.48505709693
258	Kensington Gore, Knightsbridge	51.50143293	-0.17865697100000003	526516.0192023456	179627.48015716358
260	Broadwick Street, Soho	51.513684600000005	-0.13558087900000002	529470.9896849437	181065.1816434216
261	Princes Square, Bayswater	51.5134891	-0.191351186	525601.8490998464	180946.33180531458
262	LSBU (Borough Road), Elephant & Castle	51.49874469	-0.103132904	531765.4700818366	179461.675624666
263	St. Mary Axe, Aldgate	51.51422502	-0.080660083	533280.1203040349	181223.79175131998
264	Tysoe Street, Clerkenwell	51.52644342	-0.10925682800000001	531260.8400276501	182530.86693917518
265	Southwick Street, Paddington	51.51595344	-0.169249375	527128.5593460563	181258.50818714092
266	Queen's Gate (North), Kensington	51.50102668	-0.18024610100000002	526406.8491704679	179579.56028807352
267	Regency Street, Westminster	51.49206037	-0.13222462199999999	529765.2297589313	178666.43181487836
268	Belgrave Road, Victoria	51.49320445	-0.144132875	528935.349606654	178772.63297526006
269	Empire Square, The Borough	51.50082346	-0.089740764	532688.9601858539	179717.01396623696
270	Kennington Lane Rail Bridge, Vauxhall	51.4863434	-0.122492418	530457.1298756134	178047.96986661927
271	London Zoo,  The Regent's Park	51.53583617	-0.156285395	527972.3205632851	183492.1316015696
272	Baylis Road, Waterloo	51.50144456	-0.11069930900000001	531232.5499648504	179748.32693408008
273	Belvedere Road, South Bank	51.50613324	-0.114686385	530942.3999520823	180262.58781352013
274	Warwick Road, Olympia	51.49671237	-0.20528437	524680.8189634518	179056.88423980717
275	Barbican Centre, Barbican	51.52004497	-0.092176447	532464.19019805	181850.09363345138
276	Lower Thames Street, Monument	51.50930161	-0.084985356	532994.3403034586	180668.4321905403
277	Kensington Church Street, Kensington	51.50315739	-0.191496313	525620.1690781431	179797.15209572754
278	Tooley Street, Bermondsey	51.503493799999994	-0.07962099	533383.5303104874	180032.3420351317
279	North Wharf Road, Paddington	51.51862243	-0.176645823	526607.9792587174	181542.49907584107
280	Royal Avenue 2, Chelsea	51.490083	-0.162418	527674.7636400929	178393.4955940776
281	Smith Square, Westminster	51.49580589	-0.127575233	530077.329770515	179091.19074933446
282	Royal London Hospital, Whitechapel	51.51906446	-0.059642081	534724.1705426623	181800.40787709353
284	Lambeth North Station, Waterloo	51.49914063	-0.112031483	531146.6999982658	179489.73712677843
286	St. John's Wood Road, St. John's Wood	51.527294700000006	-0.174653609	526722.1392797723	182510.33893825684
287	Bedford Way, Bloomsbury	51.52367314	-0.128377673	529942.3797601467	182188.70111092593
288	Elizabeth Bridge, Victoria	51.49236962	-0.147478734	528705.4395467665	178673.9140414082
289	South Audley Street, Mayfair	51.50923022	-0.151296092	528393.0895420061	180542.17505527954
290	Winsland Street, Paddington	51.51678023	-0.175488803	526693.3592421064	181339.63931173348
291	Claverton Street, Pimlico	51.48483991	-0.13808906199999998	529378.549671891	177853.12257476617
292	Montpelier Street, Knightsbridge	51.49888404	-0.165471605	527438.2494047658	179366.88738937138
293	Kensington Olympia Station, Olympia	51.49815779	-0.209494128	524384.6789048673	179210.46553293234
294	St. George's Square, Pimlico	51.488226	-0.135635511	529539.3096934478	178234.00167312936
295	Swan Street, The Borough	51.50029631	-0.092762704	532480.7502260889	179652.92389620733
296	Knaresborough Place, Earl's Court	51.49363156	-0.19060332600000002	525708.3290630755	178739.3719890984
297	Geraldine Street, Elephant & Castle	51.49612799	-0.106000855	531573.9400548853	179165.53624168568
298	Curlew Street, Shad Thames	51.50227992	-0.074189225	533764.0504256813	179907.2603313458
299	Vincent Square, Westminster	51.49398524	-0.136928582	529433.2396552581	178872.16263878247
300	Serpentine Car Park, Hyde Park	51.50501351	-0.17272955899999998	526917.4692901938	180035.90818973177
301	Marylebone Lane, Marylebone	51.51475963	-0.148105415	528598.9395720293	181162.66397307056
302	Putney Pier, Wandsworth	51.466907	-0.21657300000000002	523977.9842275626	175723.2510292767
303	Albert Gate, Hyde Park	51.50295379	-0.158456089	527913.799436234	179831.68594746036
305	Kennington Lane Tesco, Vauxhall	51.48677988	-0.11585396099999999	530916.7699153451	178108.34838436794
306	Rathbone Street, Fitzrovia 	51.51816295	-0.135025698	529496.8197258789	181564.1721226298
307	Black Lion Gate, Kensington Gardens	51.50990837	-0.187842717	525855.1491404123	180554.16122261574
308	Long Lane , Bermondsey	51.49907558	-0.08566631599999999	532976.8302335583	179530.03321898816
309	Embankment (Savoy), Strand	51.50963123	-0.11904756300000001	530629.7498985622	180643.78873183523
310	Black Prince Road, Vauxhall	51.4908679	-0.116911864	530831.6298824741	178561.05853325847
312	Grove End Road, St. John's Wood	51.53088935	-0.176770502	526565.3392655028	182906.41910188983
313	Wells Street, Fitzrovia 	51.51734403	-0.138072691	529287.7396496591	181467.72200131108
314	Tyers Gate, Bermondsey	51.50088934	-0.083159352	533145.5502857304	179736.28190961666
315	The Tennis Courts, The Regent's Park	51.52536703	-0.153463612	528197.3994990797	182332.85499429487
316	Cardinal Place, Victoria	51.49768448	-0.141943703	529074.6696332131	179274.6825403402
317	Dickens Square, Borough	51.49679128	-0.093913472	532411.030201179	179261.07426548103
318	Sackville Street, Mayfair	51.51004801	-0.138846453	529254.6897082388	180655.01208210495
319	Baldwin Street, St. Luke's	51.52702563	-0.08854277099999999	532696.0002112895	182632.94363582216
320	Queen Mother Sports Centre, Victoria	51.49357351	-0.139956043	529224.249669383	178821.03263449488
321	Bermondsey Street, Bermondsey	51.49785559	-0.081608045	533262.0602939662	179401.74178785126
322	Palissy Street, Shoreditch	51.526293	-0.07395499999999999	533710.0251059876	182578.00878663047
323	Clifton Street, Shoreditch	51.523196	-0.083067	533086.9842584807	182217.01400172408
324	Ontario Street, Elephant & Castle	51.49652013	-0.10138406800000001	531893.2701004129	179217.4452271784
325	St. Martin's Street, West End	51.50908747	-0.129697889	529892.249804198	180564.38036530145
326	Graham Street, Angel	51.53266186	-0.099981142	531886.3000763281	183239.0458974873
327	New North Road 1, Hoxton	51.53095	-0.085603	532888.4988527421	183074.67737630103
328	New North Road 2, Hoxton	51.53114	-0.086016	532859.3008339821	183095.05653355058
329	Prince Albert Road, The Regent's Park	51.53589283	-0.160854428	527655.2894023694	183490.45686768315
330	Eastbourne Mews, Paddington	51.51641749	-0.17913507899999997	526441.3791826217	181293.00008230557
331	Bunhill Row, Moorgate	51.52085887	-0.089887855	532620.6002116565	181944.7438722219
332	Nevern Place, Earl's Court	51.49334336	-0.19475794899999999	525420.7190682573	178700.202776189
333	Palace Gardens Terrace, Notting Hill	51.50860544	-0.193764092	525447.829074448	180399.11244278614
334	Concert Hall Approach 1, South Bank	51.505044	-0.115851	530864.6973153001	180139.37957138332
335	Tavistock Street, Covent Garden	51.51196803	-0.12071875900000001	530507.109829144	180900.66963522698
336	Concert Hall Approach 2, South Bank	51.504942	-0.115533	530887.0581486531	180128.6050105103
337	Pembridge Villas, Notting Hill	51.51108452	-0.19752494399999998	525180.0590242388	180668.36314238812
338	Wellington Street , Strand	51.51175646	-0.119643424	530582.3299088615	180879.05893466392
339	Risinghill Street, Angel	51.5333196	-0.111781191	531066.0008352262	183291.000867832
340	Bank of England Museum, Bank	51.51444134	-0.087587447	532798.8402545073	181235.26359984334
341	Craven Street, Strand	51.50810309	-0.12602103	530150.1997627036	180461.44067881745
343	London Zoo Car Park, The Regent's Park	51.53692216	-0.150181444	528392.5895423478	183623.58406472663
344	Goswell Road (City Uni), Finsbury	51.528246	-0.10102611	531826.5700740142	182746.10546417042
345	Flood Street, Chelsea	51.48802358	-0.166878535	527370.8393954788	178156.71724310462
347	Lower Marsh, Waterloo	51.50013942	-0.113936001	531011.6499346587	179597.3978310029
348	Grosvenor Square, Mayfair	51.51217033	-0.150481272	528441.3695156388	180870.55501909435
349	St. George Street, Mayfair	51.511959999999995	-0.142783033	528976.1295904679	180860.69311364077
350	Queen's Gate, Kensington Gardens	51.50171544	-0.17985418399999997	526432.1457135875	179656.82951083322
351	Macclesfield Rd, St Lukes	51.529423	-0.097122	532093.9678675323	182884.02745602743
352	Vauxhall Street, Vauxhall	51.486965000000005	-0.116625	530862.7098056424	178127.55686220442
353	Greycoat Street , Westminster	51.49459148	-0.134234258	529618.5497337437	178944.3420062492
354	Northumberland Avenue, Strand	51.506766999999996	-0.12370199999999999	530314.935861602	180316.98607944752
355	Oval Way, Vauxhall	51.486575	-0.11728599999999999	530817.9344089176	178083.00734714788
356	South Kensington Station, South Kensington	51.494412	-0.173881	526866.9717022997	178854.98423032308
357	Howland Street, Fitzrovia	51.520994	-0.139016	529211.9703698319	181871.94768133885
358	High Holborn , Covent Garden	51.516226	-0.12482599999999999	530209.9828301	181366.8604153975
359	Butler Place, Westminster	51.49782999	-0.135440826	529525.6227748385	179302.34110536185
360	Howick Place, Westminster	51.49675303	-0.138733562	529300.1196538748	179176.76291150157
361	Waterloo Station 2, Waterloo	51.50391973	-0.11342629	531036.191601577	180018.69180647936
362	Royal College Street, Camden Town	51.536264	-0.133952	529519.9758419776	183578.9774904329
363	Lord's, St. John's Wood	51.529121200000006	-0.171185285	526957.6441405745	182719.4611657502
364	Alfred Place, Bloomsbury	51.519656	-0.132339	529678.9823576353	181734.95870044132
365	City Road, Angel	51.530344	-0.100168	531880.0333563609	182980.95535980794
366	Millennium Hotel, Mayfair	51.5109193	-0.151126385	528400.1208636189	180730.30464547293
367	Harrowby Street, Marylebone	51.5173721	-0.1642075	527474.4200158664	181425.0323229927
368	Harriet Street, Knightsbridge	51.50024195	-0.15934065	527859.9924469683	179528.5749314071
370	Paddington Green, Paddington	51.520205	-0.174593	526746.0112233476	181722.0382828937
371	King Edward Walk, Waterloo	51.49775	-0.10987999999999999	531300.0225715236	179338.94875763467
372	Sardinia Street, Holborn	51.515208	-0.11786300000000001	530695.999537195	181266.05756591132
373	Prince Consort Road, Knightsbridge	51.49980661	-0.176415994	526676.0592805499	179450.4994315899
374	Waterloo Station 1, Waterloo	51.50402794	-0.11386436	531005.4792746068	180029.94154978325
375	Kensington Town Hall, Kensington	51.50194596	-0.19439295199999998	525422.4590246434	179657.47275884775
376	Millbank Tower, Pimlico	51.49188409	-0.125674815	530220.4098374319	178658.45019118153
377	Waterloo Bridge, South Bank	51.50535447	-0.11365654300000001	531016.0999453058	180177.82757912728
378	Natural History Museum, South Kensington	51.49559291	-0.17907762600000002	526502.979195848	178977.3202628722
379	Turquoise Island, Notting Hill	51.51431171	-0.200838199	524941.3289353334	181021.58426864786
380	Stanhope Gate, Mayfair	51.50686435	-0.150666888	528443.3995296468	180280.1845153574
381	Charlotte Street, Fitzrovia	51.51953043	-0.13577731	529440.7996651052	181714.91229780827
382	Farm Street, Mayfair	51.50935171	-0.14744969	528659.6595488664	180562.43436488186
383	Frith Street, Soho	51.51310333	-0.13121385	529775.6497804717	181008.27095384296
384	Marloes Road, Kensington	51.496481	-0.192404	525575.5077850786	179053.1534289433
386	Moor Street, Soho	51.51352755	-0.130110822	529850.9797635938	181057.400695209
387	Fire Brigade Pier, Vauxhall	51.49369988	-0.12139410099999999	530512.389890619	178867.9888681189
388	Southampton Street, Strand	51.51070161	-0.121723604	530440.9998222066	180758.04945560364
389	Upper Grosvenor Street, Mayfair	51.51013066	-0.155757901	528080.9494496712	180634.49603252526
390	Buxton Street 1, Shoreditch	51.521776	-0.068856	534076.979424335	182085.0284924632
391	Clifford Street, Mayfair	51.51066202	-0.142345694	529010.1396360422	180717.12313896677
392	Imperial College, Knightsbridge	51.49942855	-0.17970247600000003	526448.9992183609	179402.7799613834
393	Snow Hill, Farringdon	51.51733427	-0.10360424800000001	531679.190015506	181528.04653430328
394	Aberdeen Place, St. John's Wood	51.524826000000004	-0.176268	526616.9988433463	182233.0162215225
395	Cadogan Gardens, Chelsea	51.492461999999996	-0.159919	527841.5991202568	178662.40657511895
396	Shouldham Street, Marylebone	51.51809	-0.163609	527513.9408044738	181505.9075963261
397	Devonshire Terrace, Bayswater	51.51348	-0.17977	526405.4519733724	180965.24272990946
398	Holland Park, Kensington	51.502319	-0.200742	524980.789154275	179688.10560142767
399	Brick Lane Market, Shoreditch	51.52261762	-0.071653961	533880.4104331384	182173.5000335237
400	George Street, Marylebone	51.517703000000004	-0.154106	528174.3373771191	181479.45960302817
401	Columbia Road, Shoreditch	51.528187	-0.075375	533605.9851060929	182786.03533929048
402	Penfold Street, Marylebone	51.52289229	-0.171681991	526940.499278964	182025.91821769523
403	George Place Mews, Marylebone	51.51689296	-0.158249929	527889.0994338326	181382.13591604432
404	Palace Gate, Kensington Gardens	51.50204238	-0.184400221	526115.7291592936	179685.35058100833
405	Gloucester Road Station, South Kensington	51.49418566	-0.18267094	526257.4392185464	178814.63009858094
408	Paddington Green Police Station, Paddington	51.51994326	-0.17070433699999998	527016.5193207259	181699.66854350537
409	Strata, Elephant & Castle	51.493146	-0.099828	532011.0191087414	178845.03517791344
410	Edgware Road Station, Marylebone	51.519968	-0.169774	527080.9940653271	181704.03361495692
411	Walworth Road, Elephant & Castle	51.49337264	-0.09968067	532020.5919955045	178870.50366028622
412	Cleaver Street, Kennington	51.488105	-0.11012100000000001	531310.9849701234	178265.9646803593
419	Chelsea Bridge, Pimlico	51.485821	-0.149004	528617.9708462488	177943.0068518014
420	Southwark Station 1, Southwark	51.504042999999996	-0.10531199999999999	531598.9713645937	180046.94629356914
421	Southwark Station 2, Southwark	51.504044	-0.104778	531636.028154678	180048.01698836504
423	Eaton Square (South), Belgravia	51.49456127	-0.15393398	528251.1812986205	178906.31310839445
424	Ebury Bridge, Pimlico	51.490491	-0.14918599999999999	528592.2058394904	178462.0072383146
425	Harrington Square 2, Camden Town	51.533379	-0.139159	529167.0231157914	183248.95592224176
426	Vincent Street, Pimlico	51.493072	-0.129925	529921.9923941388	178783.00386568703
427	Cheapside, Bank	51.51397065	-0.09294031	532428.8002264163	181173.22915309735
428	Exhibition Road, Knightsbridge	51.499916999999996	-0.174554	526804.9889147314	179465.99653788857
430	South Parade, Chelsea	51.489020000000004	-0.17524	526787.5822984646	178253.02084541103
431	Crinan Street, King's Cross	51.534473999999996	-0.12220299999999999	530339.8938767964	183400.77112129348
432	Exhibition Road Museums, South Kensington	51.496957	-0.173894	526859.0092081063	179137.97556001978
433	Wren Street, Holborn	51.524564	-0.116279	530779.1196233962	182309.3050098426
435	Kennington Station, Kennington	51.488852	-0.105593	531623.1889840632	178357.1580280962
436	Red Lion Street, Holborn	51.518240000000006	-0.11655	530778.4218266569	181605.57016596984
437	Vauxhall Walk, Vauxhall	51.488124	-0.120903	530562.3962983484	178248.80904384205
439	Killick Street, King's Cross	51.5338	-0.118677	530586.3634187843	183332.10227742934
440	Kennington Oval, Oval	51.483145	-0.113134	531116.0248533846	177709.00296863104
441	Sail Street, Vauxhall	51.495656	-0.114605	530978.0592261987	179097.63152967746
442	Walmer Road, Avondale	51.510101	-0.211358	524222.8521208427	180535.4417428381
443	Philpot Street, Whitechapel	51.515256	-0.058641	534804.8580922562	181378.73941984092
444	Bethnal Green Garden, Bethnal Green	51.52568	-0.055312	535005.0259333702	182544.04801387098
445	Cheshire Street, Bethnal Green	51.52388	-0.065076	534333.0215836128	182325.92661464968
446	York Hall, Bethnal Green	51.528936	-0.055894000000000006	534955.0336788661	182905.05118750708
447	Jubilee Crescent, Cubitt Town	51.493381	-0.007542	538416.4536894893	179041.4991983746
448	Fisherman's Walk West, Canary Wharf	51.50623	-0.022959999999999998	537307.6105479355	180441.31139249462
449	Shadwell Station, Shadwell	51.511088	-0.057159	534919.9882793003	180917.9763432833
450	Jubilee Street, Stepney	51.515975	-0.053176999999999995	535181.8376881178	181468.765548872
451	Hermitage Court, Wapping	51.504719	-0.06353099999999999	534496.5814605304	180198.0088437986
452	St. Katharine's Way, Tower	51.505697	-0.070542	534007.1596662981	180293.91480203875
453	Garnet Street, Shadwell	51.508447	-0.055166999999999994	535066.0157089444	180627.96220327006
454	Napier Avenue, Millwall	51.487679	-0.021582	537458.9968843795	178380.9930752701
455	East Ferry Road, Cubitt Town	51.49447	-0.014409	537936.4927030802	179149.64500055683
456	Parkway, Camden Town	51.538071	-0.14466400000000001	528771.9871565875	183761.02921227968
457	Castlehaven Road, Camden Town	51.542138	-0.145393	528709.9663040955	184212.0149444318
458	Wapping Lane, Wapping	51.504749	-0.057544000000000005	534911.9829232437	180212.35512926787
459	Gunmakers Lane, Old Ford	51.535179	-0.03338	536497.9818116972	183641.02335729916
460	Burdett Road, Mile End	51.516196	-0.029138	536849.0353486743	181537.98742926444
461	Aston Street, Stepney	51.516000000000005	-0.038775	536180.9947981312	181498.22774768577
462	Bonny Street, Camden Town	51.541603	-0.138853	529164.9800775787	184164.03819356914
463	Thurtle Road, Haggerston	51.534776	-0.071881	533829.0298664677	183525.1329619733
464	St. Mary & St. Michael Church, Stepney	51.51417	-0.052099	535261.9738488207	181270.03549389917
465	Pitfield Street North,Hoxton	51.535579999999996	-0.08249	533090.9189791509	183595.20245210073
466	Whiston Road, Haggerston	51.534464	-0.07634099999999999	533520.6272571369	183482.29496076037
467	Southern Grove, Bow	51.523538	-0.030556	536728.6784563322	182351.7852559278
468	Cantrell Road, Bow	51.521564	-0.022694	537279.9955890273	182146.98137506735
469	Lindfield Street, Poplar	51.513757	-0.020467	537457.97413083	181283.00447026372
470	Mostyn Grove, Bow	51.530535	-0.025491999999999997	537058.9689258465	183139.3350028344
471	Hewison Street, Old Ford	51.533283000000004	-0.028155	536866.0293520364	183439.93766264233
472	Malmesbury Road, Bow	51.529452	-0.027616	536914.8968802595	183014.92913350926
473	Millharbour, Millwall	51.496137	-0.019355	537588.1556714685	179325.71667730666
474	Castalia Square, Cubitt Town	51.498125	-0.011457	538130.3603852593	179561.6491515646
475	Lightermans Road, Millwall	51.499041	-0.020156999999999998	537523.7528584125	179647.1403127022
476	Stebondale Street, Cubitt Town	51.489096	-0.009205	538313.9747753856	178561.86029514862
477	Spindrift Avenue, Millwall	51.49109	-0.018716	537647.7005334746	178765.68264562284
478	Stepney Green Station, Stepney	51.521889	-0.046669999999999996	535615.7474942745	182138.44768372463
479	Pott Street, Bethnal Green	51.527152	-0.058004999999999994	534813.8765038132	182702.77687130697
480	Flamborough Street, Limehouse	51.5128711	-0.038986599999999996	536175.6377136712	181149.89360340155
481	Saunders Ness Road, Cubitt Town	51.487128999999996	-0.009001	538334.0859356574	178343.5124072067
482	Thornfield House, Poplar	51.509843	-0.02377	537240.5505098293	180841.56572179703
483	Albert Gardens, Stepney	51.51328	-0.047784	535564.0070360282	181179.0435417044
484	Bromley High Street, Bow	51.528828000000004	-0.013258	537912.6623076862	182972.48462268434
485	Old Ford Road, Bethnal Green	51.531127000000005	-0.048017000000000004	535494.8960885123	183163.24344330552
486	Granby Street, Shoreditch	51.525645000000004	-0.069543	534017.9690937396	182514.01473912425
487	Canton Street, Poplar	51.511811	-0.025626	537105.857352932	181056.93502669205
488	Reardon Street, Wapping	51.506946	-0.058681	534826.5962759908	180454.57319763533
489	Christian Street, Whitechapel	51.513073999999996	-0.06409400000000001	534432.9332680802	181126.07228886196
490	Pennington Street, Wapping	51.508621999999995	-0.065006	534382.7432044572	180629.32485577062
491	Queen Mary's, Mile End	51.522507	-0.041378	535981.0268596489	182216.98443155337
492	The Green Bridge, Mile End	51.524677000000004	-0.03562	536373.9891813945	182469.00147534977
494	South Quay East, Canary Wharf	51.50196	-0.016250999999999998	537786.0586429634	179979.07841869228
495	Bow Church Station, Bow	51.528169	-0.018703	537536.9727954358	182888.96070906403
496	Devons Road, Bow	51.52512	-0.015578	537762.9270410673	182555.7800287475
497	Merchant Street, Bow	51.526177000000004	-0.0274677	536935.0016710438	182651.01893298747
498	Bow Road Station, Bow	51.527058000000004	-0.025296000000000003	537082.9991315345	182753.05158819532
499	Furze Green, Bow	51.519265000000004	-0.021345	537380.4925844294	181893.8575965631
500	Ansell House, Stepney	51.519806	-0.055730999999999996	534993.3180217945	181890.07134223517
501	Cephas Street, Bethnal Green	51.522560999999996	-0.054883	535044.0046462856	182197.99799327587
503	Cleveland Way, Stepney	51.520893	-0.051394	535290.9814230733	182018.9520524223
504	St. John's Park, Cubitt Town	51.496454	-0.009506	538270.8291051115	179379.51221478166
505	Ackroyd Drive, Bow	51.520398	-0.026768	537000.8676249749	182009.690097627
506	Bell Lane, Liverpool Street	51.517475	-0.07585499999999999	533604.0153241869	181593.9538544013
507	Clarkson Street, Bethnal Green	51.528692	-0.059091	534734.0036588206	182872.03026992278
508	Fournier Street, Whitechapel	51.519362	-0.074431	533697.2898434206	181806.392367899
509	Fore Street, Guildhall	51.517842	-0.090075	532616.3735402754	181608.91974803
510	Westferry DLR, Limehouse	51.509303	-0.025996	537087.7068252056	180777.34786639764
511	Sutton Street, Shadwell	51.511066	-0.053558	535169.9230154995	180922.1695583832
512	Pritchard's Road, Bethnal Green	51.532090999999994	-0.06142	534562.4438081649	183245.72586492152
513	Watney Market, Stepney	51.51422279999999	-0.055656	535015.0180104953	181269.343610619
514	Portman Square, Marylebone	51.516203999999995	-0.155525	528080.0889268039	181310.28246334524
515	Russell Gardens, Olympia	51.500088	-0.21131599999999998	524252.9777128372	179422.0218837419
516	Chrisp Street Market, Poplar	51.5112	-0.014438	537884.0086138791	181009.9944666391
517	Ford Road, Old Ford	51.532513	-0.033085	536526.4113651705	183345.10756262904
518	Antill Road, Mile End	51.528224	-0.037471	536235.0088897968	182859.99085525327
519	Teviot Street, Poplar	51.518811	-0.011662	538053.6338894055	181861.5816036537
520	Bancroft Road, Bethnal Green	51.526041	-0.047218	535565.4088972018	182599.14585914783
521	Driffield Road, Old Ford	51.534137	-0.037366	536224.6527394777	183517.72660194838
522	Clinton Road, Mile End	51.525940999999996	-0.036017	536342.6770805374	182608.82200104123
523	Langdon Park, Poplar	51.51549	-0.013475	537937.8793832447	181488.86380498105
524	Lancaster Gate , Bayswater	51.511654	-0.179668	526417.5800745406	180762.35982775726
526	Lancaster Drive, Blackwall	51.503143	-0.008428	538325.4142855122	180125.37463673815
527	Hansard Mews, Holland Park	51.503802	-0.215808	523931.13377746905	179827.42658821712
528	Clarges Street, Mayfair	51.507326	-0.14582699999999998	528777.9689173813	180340.0194299145
529	Manresa Road, Chelsea	51.486892	-0.170983	527089.0304909559	178023.75433974585
530	Newby Place, Poplar	51.508896	-0.012412999999999999	538031.4786412388	180757.59993093406
531	Twig Folly Bridge, Mile End	51.530326	-0.042744	535863.0058497853	183083.94109452397
532	Jubilee Plaza, Canary Wharf	51.50357	-0.020068	537516.3060432553	180150.94007414207
533	Wellington Row, Bethnal Green	51.528222	-0.069743	533996.535530167	182800.21862276673
534	Goldsmith's Row, Haggerston	51.531864	-0.066035	534243.0280543147	183212.01155196526
535	Gloucester Avenue, Camden Town	51.537349	-0.147154	528601.3422168683	183676.36347461134
536	Queensbridge Road, Haggerston	51.53385	-0.06992000000000001	533967.747915386	183425.74511949322
537	Old Montague Street, Whitechapel	51.51793	-0.067937	534152.0255502982	181659.02564142927
538	Naval Row, Blackwall	51.508981	-0.0069900000000000006	538407.5333538167	180777.28631731326
539	Hoxton Station, Hoxton	51.531090999999996	-0.075901	533561.0074687916	183108.00937793832
540	Albany Street, The Regent's Park	51.528302000000004	-0.144466	528813.2699118837	182675.0246424467
541	Green Park Station, Mayfair	51.506613	-0.142844	528986.9875671826	180265.97976379923
542	Salmon Lane, Limehouse	51.514115000000004	-0.033828	536529.8562563024	181297.82220699906
543	Lansdowne Walk, Ladbroke Grove	51.509591	-0.20466600000000001	524688.6134021278	180490.09732301757
544	Percival Street, Finsbury	51.526153	-0.10220800000000001	531750.6272266946	182511.2297205228
545	Arlington Road, Camden Town	51.539957	-0.14524600000000001	528726.3088684046	183969.7369265682
546	New Fetter Lane, Holborn	51.517428	-0.10798699999999999	531374.8455062101	181530.5986482809
547	East India DLR, Blackwall	51.509474	-0.002275	538733.2186635567	180841.0294902296
548	Westminster Bridge Road, Elephant & Castle	51.498385999999996	-0.10791300000000001	531434.7233340137	179413.20114766734
549	Gaywood  Street, Elephant & Castle	51.49605	-0.10419300000000001	531699.6517981576	179160.11200128452
550	Harford Street, Mile End	51.521564	-0.039264	536130.4881389276	182116.04827088933
551	Montgomery Square, Canary Wharf	51.503446999999994	-0.016233	537782.8259703186	180144.46921036902
552	Watney Street, Shadwell	51.511542	-0.056666999999999995	534952.787018628	180969.3687002974
553	Regent's Row , Haggerston 	51.535678000000004	-0.062546	534473.7842181487	183642.5420053911
554	Aberfeldy Street, Poplar	51.513548	-0.005659	538486.053394619	181287.66053574858
556	Heron Quays DLR, Canary Wharf	51.502660999999996	-0.021596	537412.9951186974	180046.9900309509
557	King Edward Street, St Pauls	51.516009999999994	-0.0985	532037.148716368	181389.9732052798
558	Page Street, Westminster	51.493978000000006	-0.127554	530084.0030690734	178887.96122842125
559	Abbotsbury Road, Holland Park	51.501391	-0.20599099999999998	524619.0189070059	179575.9660181608
560	Ladbroke Grove Central, Ladbroke Grove	51.511624	-0.205921	524595.9837788214	180714.04067694035
561	Rectory Square, Stepney	51.518369	-0.043371	535855.0740342744	181753.1298786985
562	Bury Place, Holborn	51.51746	-0.12335	530308.8712357945	181506.71070834264
563	Preston's Road, Cubitt Town	51.499286	-0.009152	538286.8347785065	179695.10316188697
564	Somerset House, Strand	51.509943	-0.117619	530727.9886614961	180681.0073072717
565	Selby Street, Whitechapel	51.521905	-0.063386	534456.069043371	182109.40273253835
566	Westfield Ariel Way, White City	51.509158	-0.22410300000000002	523340.9968205733	180409.03902031746
568	Bishop's Bridge Road West, Bayswater	51.51616	-0.18697	525898.4860565476	181250.86947852117
569	Pitfield Street Central, Hoxton	51.53213	-0.08299	533066.2957645385	183210.6425860247
570	Upper Bank Street, Canary Wharf	51.503083000000004	-0.017676	537683.7777745666	180101.2783723187
571	Westfield Southern Terrace ,Shepherd's Bush	51.506256	-0.21833699999999998	523748.97470560163	180096.0474482239
572	Greenland Road, Camden Town	51.539099	-0.141728	528972.691227403	183880.51479699794
573	Limerston Street, West Chelsea	51.485587	-0.18119000000000002	526383.9961213854	177860.9789729295
574	Eagle Wharf Road, Hoxton	51.533559999999994	-0.09315	532357.4812836517	183351.2484054184
576	Alpha Grove, Millwall	51.497304	-0.022793	537346.0138710025	179449.03733211482
577	Globe Town Market, Bethnal Green	51.528869	-0.047548	535534.1260131716	182913.01589143235
578	Hollybush Gardens, Bethnal Green	51.527607	-0.057133	534873.0188264047	182754.9799060008
579	Queen Street 2, Bank	51.511246	-0.093051	532429.0151744973	180870.03974051937
580	Doddington Grove, Kennington	51.48692917	-0.102996299	531809.001066401	178148.00225191677
581	New Cavendish Street, Marylebone	51.519166999999996	-0.147983	528595.0294454292	181652.99551052725
583	Abingdon Green, Westminster	51.497622	-0.125978	530183.0278294764	179295.98517696443
584	Ilchester Gardens, Bayswater	51.512440000000005	-0.19096	525631.8759345529	180830.33814297774
586	Mudchute DLR, Cubitt Town	51.490645	-0.014582	537936.0208703766	178723.97350007546
587	Monument Street, Monument	51.509640000000005	-0.08497	532994.4212256286	180706.09000140204
588	Hoxton Street, Hoxton	51.52959	-0.0801	533274.1501194304	182933.4426455833
589	Drayton Gardens, West Chelsea	51.487196000000004	-0.179369	526505.9764892674	178043.04831561472
590	Greenberry Street, St.John's Wood	51.53256	-0.16862	527126.0070292073	183106.32139804246
591	Westfield Library Corner, Shepherd's Bush	51.506093	-0.2242237	523340.8905744018	180067.99320202786
592	Bishop's Bridge Road East, Bayswater	51.5171	-0.18377000000000002	526117.9154759545	181360.90693651472
593	Northdown Street, King's Cross	51.531065999999996	-0.11934000000000002	530548.1961979776	183026.88908124395
594	Kingsway Southbound, Strand	51.513875	-0.117774	530705.987251312	181117.98225944882
595	Hammersmith Road, Hammersmith	51.493266999999996	-0.21985	523679.1034069535	178649.05653250145
596	Parson's Green , Parson's Green	51.472817	-0.199783	525128.0186435663	176408.99924943002
597	Fulham Park Road, Fulham	51.473471	-0.20781999999999998	524568.0814450126	176468.03535590702
598	Southerton Road, Hammersmith	51.494499	-0.228188	523096.9839683734	178772.01880075128
599	Manbre Road, Hammersmith	51.485743	-0.22361599999999998	523437.97894500766	177806.00394990557
600	South Lambeth Road, Vauxhall	51.481747	-0.124642	530320.9832812201	177533.0113715937
601	BBC White City, White City	51.514767	-0.225787	523209.01736200496	181029.9529328345
602	Union Grove, Wandsworth Road	51.472993	-0.133972	529697.9711940114	176542.98802424187
603	Caldwell Street, Stockwell	51.477839	-0.11649300000000001	530897.9819432374	177112.9555894323
604	St Martins Close, Camden Town	51.538792	-0.138535	529194.9853086958	183852.0044397287
605	Seymour Place, Marylebone	51.520331	-0.163667	527503.6631366041	181755.0150675731
606	Addison Road, Holland Park	51.504199	-0.210941	524267.8315094167	179879.81960629224
607	Putney Bridge Station, Fulham	51.468814	-0.210279	524409.9671078445	175945.981879003
608	Colet Gardens, Hammersmith	51.491093	-0.216493	523918.0277868414	178412.97023425432
609	Sugden Road, Clapham	51.46512358	-0.157788279	528066.0007133336	175626.0026550204
610	Danvers Street, West Chelsea	51.48256792	-0.172078187	527025.0007102685	177541.00183557076
611	Princedale Road , Holland Park	51.50646524	-0.208486599	524432.0004640078	180136.0020407959
612	Wandsworth Rd, Isley Court, Wandsworth Road	51.46925984	-0.141812513	529164.0008400895	176114.00250752742
613	Woodstock Grove, Shepherd's Bush	51.50403821	-0.21740009300000002	523820.00045851397	179851.00205924077
614	Bradmead, Battersea Park	51.47817208	-0.144690541	528939.0008399211	177100.00274269588
615	Finlay Street, Fulham	51.476885100000004	-0.21589560100000002	523998.0004802107	176834.00201486374
616	Aintree Street, Fulham	51.48102131	-0.20997349699999998	524398.0004996514	177304.00224836555
617	Elysium Place, Fulham	51.47107905	-0.20784290800000002	524573.0004860586	176202.00217939864
618	Eel Brook Common, Walham Green	51.47625965	-0.193254007	525572.0005563135	176803.00236983193
619	Irene Road, Parsons Green	51.4737636	-0.19701009600000002	525318.0005215381	176519.00271497757
620	Surrey Lane, Battersea	51.47518024	-0.167160736	527387.000719294	176728.00194854202
621	Wandsworth Town Station, Wandsworth	51.46086446	-0.187427294	526019.0006260102	175101.0021498736
622	Lansdowne Road, Ladbroke Grove	51.50748124	-0.20553590800000002	524634.0005078949	180254.002062065
623	Nantes Close, Wandsworth	51.46193072	-0.18079178399999998	526477.0006113963	175231.0027386759
624	Courland Grove, Wandsworth Road	51.4729184	-0.13210270400000002	529828.0008861838	176538.00221767454
625	Queen's Circus, Battersea Park	51.47761941	-0.149551631	528603.0008142188	177030.00193667266
626	Normand Park, West Kensington	51.48438657	-0.20481514	524747.0005270117	177687.00210724145
627	Holden Street, Battersea	51.468790500000004	-0.158230901	528025.0007179076	176033.002431366
628	William Morris Way, Sands End	51.46881971	-0.184318843	526213.000595847	175991.0023769502
629	Morie Street, Wandsworth	51.45995384	-0.190184054	525830.0005589129	174995.00212651497
630	Clarence Walk, Stockwell	51.47073264	-0.12699406800000002	530189.000951995	176304.00227561506
631	Battersea Park Road, Nine Elms	51.47950170000001	-0.141770709	529138.0008304819	177253.0022842351
632	Sheepcote Lane, Battersea	51.47053858	-0.163041605	527686.0007030522	176219.00213286915
633	Vereker Road North, West Kensington	51.48959104	-0.20937859399999997	524416.0005119058	178258.0020576866
634	Brook Green South, Brook Green	51.49434708	-0.21580455899999998	523957.0004130864	178776.0027598799
635	Greyhound Road, Hammersmith	51.48606206	-0.214428378	524075.0004693627	177857.00186516342
636	South Park, Sands End	51.46706414	-0.19350207600000002	525580.000580955	175780.0023792014
637	Spencer Park, Wandsworth Common	51.45787019	-0.17469162300000002	526912.0006546772	174790.00213286525
638	Falcon Road, Clapham Junction	51.46663393	-0.169821175	527226.0006943548	175773.00214685983
639	Coomer Place, West Kensington	51.48357068	-0.202038682	524942.0005118123	177601.00216298204
640	Silverthorne Road, Battersea	51.47286577	-0.148059277	528720.000822261	176504.00222213863
641	Archbishop's Park, Waterloo	51.49824168	-0.117495865	530770.0009300883	179380.0026746626
642	Fawcett Close, Battersea	51.46916161	-0.174485792	526895.0006574274	176046.00194316392
643	All Saints' Road, Portobello	51.5190427	-0.204764421	524656.0004861045	181541.00242781275
644	Rainville Road, Hammersmith	51.48373225	-0.22385225600000003	523427.0004363048	177582.00182137312
645	Great Suffolk Street, The Borough	51.50173215	-0.100292412	531954.0010764266	179799.0028447878
646	Buckingham Gate, Westminster	51.49886563	-0.137424571	529385.000827636	179414.00230233293
647	Richmond Way, Shepherd's Bush	51.50035306	-0.217515071	523822.00041450793	179441.00218288272
648	Peterborough Road, Sands End	51.46904022	-0.19627483	525382.0005511225	175995.00264522966
649	World's End Place, West Chelsea	51.48180515	-0.18027465	526458.0006246191	177442.00227842966
650	St. Mark's Road, North Kensington	51.51687069	-0.21387239600000002	524030.00047184905	181284.00219023193
651	Thorndike Close, West Chelsea	51.48089844	-0.18385357300000002	526212.000580925	177335.00253135705
652	Evesham Street, Avondale	51.51148696	-0.218190203	523745.00044582516	180678.0027840426
653	Simpson Street, Clapham Junction	51.47084722	-0.17070367	527153.0006383428	176240.00263172385
654	Ashmole Estate, Oval	51.48267821	-0.117661574	530803.0009676702	177649.00255573905
655	Crabtree Lane, Fulham	51.48294452	-0.219346128	523742.00044548605	177502.00243474383
656	Broomhouse Lane, Parsons Green	51.46841875	-0.199135704	525185.0005392276	175921.00256704714
657	Blythe Road West, Shepherd's Bush	51.499680600000005	-0.221791552	523527.00044168613	179359.00234446253
658	Ethelburga Estate, Battersea Park	51.47729232	-0.16478637	527546.0007095678	176967.00240083793
659	Grant Road West, Clapham Junction	51.46437067	-0.17461940399999998	526899.0006878419	175513.00189254744
660	West Kensington Station, West Kensington	51.49087074	-0.20602974300000002	524645.0005360245	178406.00179482668
661	All Saints Church, Portobello	51.51632095	-0.202608612	524813.0005267077	181242.00255857853
662	Phene Street, Chelsea	51.48498496	-0.16791986899999997	527307.0006998474	177817.0019833704
663	Clarendon Road, Avondale	51.51323001	-0.211593602	524198.00046154525	180883.0027150573
664	Austin Road, Battersea Park	51.474376	-0.155442787	528203.0007432037	176659.00194227434
665	Smugglers Way, Wandsworth	51.46108367	-0.191722864	525720.0005632943	175118.00274380922
666	Olympia Way, Olympia	51.49610093	-0.20815825899999998	524483.0004810364	178984.00259181383
667	Shepherd's Bush Road North, Shepherd's Bush	51.5015946	-0.222293381	523487.00041901664	179571.00196434793
668	Ravenscourt Park Station, Hammersmith	51.49422354	-0.23676993600000001	522502.00030499557	178727.00280438515
669	Teversham Lane, Stockwell	51.47614939	-0.12325850000000001	530433.0009297853	176913.00257728895
670	Ashley Crescent, Battersea	51.46718562	-0.152248582	528445.0007825624	175865.00190378123
671	Parsons Green Station, Parsons Green	51.475089000000004	-0.201968	524970.0699099725	176657.92618143835
672	Grant Road Central, Clapham Junction	51.46468839999999	-0.17365654600000002	526965.0006552509	175550.00200067981
673	Hibbert Street, Battersea	51.46517078	-0.18038939	526496.0005984794	175592.00285599567
674	Carnegie Street, King's Cross	51.53546778	-0.11619105	530754.0009732438	183522.0020871079
675	Usk Road, Clapham Junction	51.46348914	-0.18212624800000002	526380.0006066009	175402.0025697533
676	Hartington Road, Stockwell	51.47787084	-0.126874471	530177.0008812351	177098.0028613602
677	Heath Road, Battersea	51.46866929	-0.146544642	528837.0008263474	176040.00224823118
678	Esmond Street, Putney	51.46231278	-0.211468596	524345.000471382	175221.00250608934
679	Orbel Street, Battersea	51.47453545	-0.170210533	527177.0007031214	176651.00211714706
680	Westbridge Road, Battersea	51.47768469	-0.17032931699999998	527160.0007058505	177001.00243980082
681	Bishop's Avenue, Fulham	51.47303687	-0.21474980800000001	524088.0004315986	176408.00248102777
682	Crisp Road, Hammersmith	51.48810829	-0.22660621	523224.0004209506	178064.00176441146
683	Dorothy Road, Clapham Junction	51.46506424	-0.163750945	527652.0007368244	175609.00214283232
684	Neville Gill Close, Wandsworth	51.45475251	-0.195197203	525496.0005307966	174408.00223091993
685	Osiers Road, Wandsworth	51.46067005	-0.198735357	525234.000514265	175060.00254326852
686	Beryl Road, Hammersmith	51.48814438	-0.22245646800000002	523512.0004395458	178075.00185627147
687	Maclise Road, Olympia	51.49760804	-0.21145598	524250.00048340857	179146.00192752894
688	Northfields, Wandsworth	51.46095151	-0.20066766	525099.0004951498	175088.0023439227
689	Spanish Road, Clapham Junction	51.45922541	-0.18088495899999998	526478.0006047434	174930.0024049235
690	Stanley Grove, Battersea	51.47047503	-0.152130083	528444.0008127455	176231.00218383147
691	Erin Close, Walham Green	51.47946386	-0.195777222	525388.0005440929	177155.0024065086
692	Cadogan Close, Victoria Park	51.54211855	-0.028941601	536785.001457088	184421.00265130308
693	Felsham Road, Putney	51.464786	-0.215618902	524050.0004704171	175489.0017857861
694	Putney Rail Station, Putney	51.46071722	-0.216526155	523998.00044187723	175035.00258427794
695	Islington Green, Angel	51.53638435	-0.102757578	531683.0010258406	183648.00265704805
696	Charing Cross Hospital, Hammersmith	51.48728535	-0.217995921	523824.0004460982	177987.00222898947
697	Charlotte Terrace, Angel	51.53639219	-0.112721065	530992.0009980757	183631.00221026057
698	Shoreditch Court, Haggerston	51.53908372	-0.070329419	533924.0012684015	184007.00187191518
699	Belford House, Haggerston	51.5366541	-0.07023031	533938.0012265611	183737.00188839555
700	Battersea Church Road, Battersea	51.47696496	-0.17434706600000002	526883.0006462288	176914.00185501523
701	Vicarage Crescent, Battersea	51.47287627	-0.176267008	526761.000611388	176456.00255471663
702	Durant Street, Bethnal Green	51.52868155	-0.065550321	534286.00127922	182859.0025928779
703	St. Bride Street, Holborn	51.51505991	-0.10534448	531565.0010507328	181272.00285881225
704	Mexfield Road, East Putney	51.45682071	-0.20280209800000001	524962.0005593061	174625.0017761141
705	Upper Richmond Road, Putney	51.45971528	-0.21214593899999998	524305.0004611486	174931.0018268112
706	Snowsfields, London Bridge	51.50215353	-0.083632928	533109.0011221172	179876.00255774666
707	Barons Court Station, West Kensington	51.49021762	-0.21508709199999998	524018.00043451757	178318.00283973044
708	Disraeli Road, Putney	51.46161068	-0.21614583	524022.0004619158	175135.002209866
709	Montserrat Road , Putney	51.46321128	-0.215550761	524059.0004226917	175314.0021197443
710	Albert Bridge Road, Battersea Park	51.47439218	-0.163347594	527654.0007298996	176647.00219193945
711	Everington Street, Fulham	51.48335692	-0.21630554600000002	523952.0004726552	177553.00190226355
712	Mile End Stadium, Mile End	51.51854104	-0.034903714	536442.0014670986	181788.0028278813
713	Hawley Crescent, Camden Town	51.54100708	-0.14326094	528861.0007859169	184090.00214102684
714	Stewart's Road, Wandsworth Road	51.47311696	-0.137235175	529471.0008584388	176551.00264509674
715	Aylward Street, Stepney	51.51563007	-0.049067242999999997	535468.0013885018	181438.00245468848
716	Stainsby Road , Poplar	51.51542791	-0.02356501	537238.0015095543	181463.00291030132
717	Dunston Road , Haggerston	51.53658514	-0.075885686	533546.0011841314	183719.00280516213
718	Ada Street, Hackney Central	51.53571683	-0.060291813	534630.0012650476	183651.0025934517
719	Victoria Park Road, Hackney Central	51.53642464	-0.054162264	535053.0013090126	183741.0018741963
720	Star Road, West Kensington	51.48724429	-0.205279052	524707.0005057788	178004.0027018795
721	Wendon Street, Old Ford	51.53603947	-0.026262677	536989.0014623284	183750.00276844358
722	Finnis Street, Bethnal Green	51.52458353	-0.058631453	534778.0013012824	182416.00283100447
723	Stephendale Road, Sands End	51.46822047	-0.190346493	525796.0005969753	175914.0018979756
724	Alma Road, Wandsworth	51.45799126	-0.184806157	526209.000607513	174786.00216175962
725	Thessaly Road North, Wandsworth Road	51.47732253	-0.13874872300000002	529354.0008959722	177016.0018567119
726	Alfreda Street, Battersea Park	51.47505096	-0.15090837099999999	528516.0007727686	176742.00190891305
727	Chesilton Road, Fulham	51.47569809	-0.20587627	524697.000494356	176719.00211120755
728	Putney Bridge Road, East Putney	51.46199911	-0.206240805	524709.0004620462	175195.00260650835
729	St. Peter's Terrace, Fulham	51.47893931	-0.20848529300000002	524507.0004448306	177075.0027414017
730	Bridge Avenue, Hammersmith	51.49208492	-0.229116862	523039.0004045996	178502.00187956073
731	Michael Road, Walham Green	51.47727637	-0.18921046600000002	525850.0005681823	176923.00178431868
732	Duke Street Hill, London Bridge	51.50630441	-0.087262995	532845.0011778468	180331.00185424456
733	Park Lane, Mayfair	51.50542628	-0.150817316	528437.0007842645	180120.00201543557
734	Plough Terrace, Clapham Junction	51.46230566	-0.175407201	526850.0006893647	175282.00224915045
735	Grant Road East, Clapham Junction	51.46489445	-0.17302926	527008.0006555591	175574.0022482263
736	Queensdale Road, Shepherd's Bush	51.50659035	-0.216104479	523903.0004217179	180137.0024441531
737	Fulham Broadway, Walham Green	51.47993289	-0.19411695	525502.0005415399	177210.00248129386
738	Imperial Road, Sands End	51.47514228	-0.18727898699999998	525990.0006142982	176689.00177325727
739	Hortensia Road, West Brompton	51.48176572	-0.185273723	526111.0005917471	177429.00230616162
740	Sirdar Road, Avondale	51.51092871	-0.214594781	523996.00044250744	180622.00283290094
741	Freston Road, Avondale	51.5129814	-0.219486603	523651.0003976437	180842.00237063383
742	Blenheim Crescent, Ladbroke Grove	51.51510818	-0.208565479	524403.0004961615	181097.00277019318
743	Oxford Road, Putney	51.46079243	-0.212607684	524270.00047494407	175050.00206511733
744	Ingrave Street, Clapham Junction	51.46745485	-0.172293499	527052.0006827603	175860.00248946034
745	Upcerne Road, West Chelsea	51.47816972	-0.18243547	526318.000592031	177034.00217346684
746	Lots Road, West Chelsea	51.4795738	-0.17903854	526550.0006620211	177196.00186653322
747	Ormonde Gate, Chelsea	51.48796408	-0.161765173	527726.000717914	178159.00189004088
748	Hertford Road, De Beauvoir Town	51.53727795	-0.079201849	533314.0011487093	183790.00207409335
749	Haggerston Road, Haggerston 	51.53932857	-0.074284675	533649.0011728294	184027.00234322145
750	Culvert Road, Battersea	51.4710956	-0.157850096	528045.0007462867	176290.00220401114
751	Newton Street, Covent Garden	51.51612862	-0.12090940800000001	530482.0009674995	181363.00184655265
752	Manfred Road, East Putney	51.45816465	-0.20600248	524736.0005070108	174769.001991494
753	Hammersmith Town Hall, Hammersmith	51.49263658	-0.234094148	522692.0003505821	178555.00267823256
754	Grenfell Road, Avondale	51.5129006	-0.214762686	523979.0004605923	180841.002071442
755	The Vale, Chelsea	51.48512191	-0.17497190199999998	526817.0006348996	177820.00263637764
756	Prince of Wales Drive, Battersea Park	51.47515398	-0.159169801	527942.0007315865	176739.00244067065
757	Harcourt Terrace, West Brompton	51.48795853	-0.18740450600000003	525946.0005721977	178114.0018267453
758	Westbourne Park Road, Portobello	51.51787005	-0.201005397	524920.0004909441	181417.00282506653
759	Broadley Terrace, Marylebone	51.52456169	-0.165668686	527353.0006837568	182222.00266824954
760	Rossmore Road, Marylebone	51.52526975	-0.163795009	527481.0007351198	182304.00191551476
761	Humbolt Road, Fulham	51.48321729	-0.211860644	524261.0004623073	177545.0024868278
762	Storey's Gate, Westminster	51.50070305	-0.129698963	529916.0008698017	179632.00242138255
763	Mile End Park Leisure Centre, Mile End	51.52059714	-0.032566532999999995	536598.0014653355	182021.00281440685
764	St. John's Road, Clapham Junction	51.46239255	-0.16829214	527344.0006982224	175304.00219226617
765	Ranelagh Gardens, Fulham	51.46760141	-0.20682737	524653.0004822192	175817.00178715764
766	Ram Street, Wandsworth	51.45752945	-0.192165613	525699.0005554612	174722.0017753163
767	Santos Road, Wandsworth	51.45705988	-0.200806304	525100.000496186	174655.0024463178
768	Clapham Common North Side, Clapham Common	51.46134382	-0.159322467	527970.0007391899	175203.00202167445
769	Sandilands Road, Walham Green	51.473611	-0.191803	525680.0364266897	176510.9498273559
770	Gwendwr Road, West Kensington	51.491026	-0.209121	524429.9798652638	178418.01314841397
771	Rifle Place, Avondale	51.509223999999996	-0.21601599999999999	523902.00199824624	180430.02624083645
772	Binfield Road, Stockwell	51.47250956	-0.122831913	530473.0009481871	176509.00272315874
773	Tallis Street, Temple	51.511891	-0.107349	531435.0343626442	180916.0109034554
774	Hurlingham Park, Parsons Green	51.470131	-0.20464000000000002	524798.0307906922	176102.02427262947
775	Little Brook Green, Brook Green	51.496664	-0.22386799999999998	523391.01828134595	179020.0435224038
776	Abyssinia Close, Clapham Junction	51.460333	-0.16702899999999998	527437.475566857	175077.16897890915
777	Limburg Road, Clapham Junction	51.46192307	-0.165297857	527553.303405617	175257.00096578733
779	Houndsditch, Aldgate	51.514449	-0.07717897900000001	533521.0002166736	181255.03957819214
780	Imperial Wharf Station, Sands End	51.474665	-0.18316517	526277.0005706296	176643.00691355264
781	Victoria & Albert Museum, South Kensington	51.496653	-0.172065	526986.8070309622	179107.3382285808
782	Halford Road, West Kensington	51.483911	-0.19760944	525248.6003307609	177646.40852061534
783	Monier Road, Hackney Wick	51.5403115	-0.021630359	537297.4085666634	184233.7402447145
784	East Village, Queen Elizabeth Olympic Park	51.546326	-0.00993526	538090.1992330261	184924.56427218777
785	Aquatic Centre, Queen Elizabeth Olympic Park	51.54094	-0.010510565	538066.600461389	184324.54356454694
786	Lee Valley VeloPark, Queen Elizabeth Olympic Park	51.549369	-0.015717613999999998	537680.099866873	185252.06135370638
787	Timber Lodge, Queen Elizabeth Olympic Park	51.546805	-0.01469126	537758.9963680938	184968.86923059984
788	Copper Box Arena, Queen Elizabeth Olympic Park	51.544836	-0.019524752	537429.7980771972	184740.82656477348
789	Podium, Queen Elizabeth Olympic Park	51.538717999999996	-0.011889482	537977.6974355606	184074.8524905326
790	Stratford Station, Stratford	51.541793	-0.00481	538459.3082018266	184430.16534877263
792	Blackfriars Road, Southwark	51.505461	-0.10454093	531648.4000342244	180206.01775117626
793	Cromer Street, Bloomsbury	51.528279	-0.11955857	530541.0017790527	182716.57476741617
794	Lansdowne Way Bus Garage, Stockwell	51.474567	-0.12458	530345.7394502504	176734.68500390998
795	Melton Street, Euston	51.527566	-0.13484927	529482.4068332142	182610.13882494424
796	Coram Street, Bloomsbury	51.523999999999994	-0.12640984	530077.9585815901	182228.54267258884
797	Ossulston Street, Somers Town	51.5293	-0.12827903	529933.2161074003	182814.6040874255
798	Birkenhead Street, King's Cross	51.53019988	-0.122299441	530345.4036397713	182925.30121337366
799	Kings Gate House, Westminster	51.49769846	-0.137598896	529376.203592434	179283.90115672088
800	Sopwith Way, Battersea Park	51.48112194	-0.149035375	528629.0035112655	177420.40074968123
801	Lavington Street, Bankside	51.50522417	-0.098031812	532100.8038133337	180191.4002244058
802	Albert Square, Stockwell	51.47659006	-0.118256789	530779.0736991741	176970.9207991369
803	Southwark Street, Bankside	51.50540994	-0.09834108800000001	532078.8038401526	180211.50068366184
804	Good's Way, King's Cross	51.53466774	-0.125078653	530139.9036397715	183417.200766209
805	Bevington Road, North Kensington	51.52006942	-0.20633838399999999	524544.00322685	181652.50085375886
806	Handyside Street, King's Cross	51.53724056	-0.12480738599999999	530151.383637284	183703.7904626692
807	Bevington Road West, North Kensington	51.5212	-0.20888818	524364.0296067905	181773.8939599084
808	Stockwell Roundabout, Stockwell	51.47348621	-0.12255563	530489.4036531524	176618.10081973544
809	Lincoln's Inn Fields, Holborn	51.51627788	-0.118272992	530664.4936751507	181384.3003438425
810	Tate Modern, Bankside	51.50672529	-0.098807246	532042.6538069977	180356.93107758454
811	Westferry Circus, Canary Wharf	51.50570304	-0.027772743	536975.2041997311	180373.70119043314
812	Here East North, Queen Elizabeth Olympic Park	51.54873119	-0.022606555	537204.404264918	185168.20053646568
813	New Spring Gardens Walk, Vauxhall	51.48780745	-0.122759626	530434.4036547192	178210.30088978438
814	Clapham Road, Lingham Street, Stockwell	51.47143307	-0.12367073599999999	530417.8136376252	176387.80098343577
815	Lambeth Palace Road, Waterloo	51.500089200000005	-0.116628701	530824.9036729976	179587.00096721237
817	Riverlight South, Nine Elms	51.48133547	-0.13821229599999998	529379.9035852319	177463.20021236787
818	One Tower Bridge, Bermondsey	51.5031278	-0.078655507	533451.6039591086	179993.40038944889
